<?xml version="1.0" encoding="UTF-8"?>
<kml xmlns="http://www.opengis.net/kml/2.2">
  <Document>
    <name>Where to get Narcan From</name>
    <description/>
    <Style id="icon-1899-0288D1-nodesc-normal">
      <IconStyle>
        <color>ffd18802</color>
        <scale>1</scale>
        <Icon>
          <href>https://www.gstatic.com/mapspro/images/stock/503-wht-blank_maps.png</href>
        </Icon>
        <hotSpot x="32" xunits="pixels" y="64" yunits="insetPixels"/>
      </IconStyle>
      <LabelStyle>
        <scale>0</scale>
      </LabelStyle>
      <BalloonStyle>
        <text><![CDATA[<h3>$[name]</h3>]]></text>
      </BalloonStyle>
    </Style>
    <Style id="icon-1899-0288D1-nodesc-highlight">
      <IconStyle>
        <color>ffd18802</color>
        <scale>1</scale>
        <Icon>
          <href>https://www.gstatic.com/mapspro/images/stock/503-wht-blank_maps.png</href>
        </Icon>
        <hotSpot x="32" xunits="pixels" y="64" yunits="insetPixels"/>
      </IconStyle>
      <LabelStyle>
        <scale>1</scale>
      </LabelStyle>
      <BalloonStyle>
        <text><![CDATA[<h3>$[name]</h3>]]></text>
      </BalloonStyle>
    </Style>
    <StyleMap id="icon-1899-0288D1-nodesc">
      <Pair>
        <key>normal</key>
        <styleUrl>#icon-1899-0288D1-nodesc-normal</styleUrl>
      </Pair>
      <Pair>
        <key>highlight</key>
        <styleUrl>#icon-1899-0288D1-nodesc-highlight</styleUrl>
      </Pair>
    </StyleMap>
    <Folder>
      <name>Pharmacies/Narcan</name>
      <Placemark>
        <name>Walgreens Pharmacy</name>
        <styleUrl>#icon-1899-0288D1-nodesc</styleUrl>
        <Point>
          <coordinates>
            -122.3382295,47.6097747,0
          </coordinates>
        </Point>
      </Placemark>
      <Placemark>
        <name>Walgreens Pharmacy</name>
        <styleUrl>#icon-1899-0288D1-nodesc</styleUrl>
        <Point>
          <coordinates>
            -122.3212034,47.6151076,0
          </coordinates>
        </Point>
      </Placemark>
      <Placemark>
        <name>Sy Pharmacy and Wellness</name>
        <styleUrl>#icon-1899-0288D1-nodesc</styleUrl>
        <Point>
          <coordinates>
            -122.2844282,47.5462771,0
          </coordinates>
        </Point>
      </Placemark>
      <Placemark>
        <name>Walgreens Pharmacy</name>
        <styleUrl>#icon-1899-0288D1-nodesc</styleUrl>
        <Point>
          <coordinates>
            -122.3007439,47.5995558,0
          </coordinates>
        </Point>
      </Placemark>
      <Placemark>
        <name>CityScript Pharmacy</name>
        <styleUrl>#icon-1899-0288D1-nodesc</styleUrl>
        <Point>
          <coordinates>
            -122.1889392,47.7116415,0
          </coordinates>
        </Point>
      </Placemark>
      <Placemark>
        <name>Walgreens Pharmacy</name>
        <styleUrl>#icon-1899-0288D1-nodesc</styleUrl>
        <Point>
          <coordinates>
            -122.1328893,47.6308012,0
          </coordinates>
        </Point>
      </Placemark>
      <Placemark>
        <name>Alto Pharmacy</name>
        <styleUrl>#icon-1899-0288D1-nodesc</styleUrl>
        <Point>
          <coordinates>
            -122.1662859,47.6288734,0
          </coordinates>
        </Point>
      </Placemark>
      <Placemark>
        <name>Walgreens Pharmacy</name>
        <styleUrl>#icon-1899-0288D1-nodesc</styleUrl>
        <Point>
          <coordinates>
            -122.0372568,47.5452489,0
          </coordinates>
        </Point>
      </Placemark>
      <Placemark>
        <name>Rite Aid Pharmacy</name>
        <styleUrl>#icon-1899-0288D1-nodesc</styleUrl>
        <Point>
          <coordinates>
            -120.5228358,46.5991711,0
          </coordinates>
        </Point>
      </Placemark>
      <Placemark>
        <name>CVS Pharmacy</name>
        <styleUrl>#icon-1899-0288D1-nodesc</styleUrl>
        <Point>
          <coordinates>
            -122.3386291,47.608455,0
          </coordinates>
        </Point>
      </Placemark>
      <Placemark>
        <name>Colton Pharmacy</name>
        <styleUrl>#icon-1899-0288D1-nodesc</styleUrl>
        <Point>
          <coordinates>
            -122.2743534,46.5533385,0
          </coordinates>
        </Point>
      </Placemark>
      <Placemark>
        <name>Washington Valley Pharmacy</name>
        <styleUrl>#icon-1899-0288D1-nodesc</styleUrl>
        <Point>
          <coordinates>
            -120.2930296,47.4131879,0
          </coordinates>
        </Point>
      </Placemark>
      <Placemark>
        <name>Arlington Pharmacy</name>
        <styleUrl>#icon-1899-0288D1-nodesc</styleUrl>
        <Point>
          <coordinates>
            -122.1286073,48.1982521,0
          </coordinates>
        </Point>
      </Placemark>
      <Placemark>
        <name>Lincoln Pharmacy Inc</name>
        <styleUrl>#icon-1899-0288D1-nodesc</styleUrl>
        <Point>
          <coordinates>
            -122.4444593,47.2232222,0
          </coordinates>
        </Point>
      </Placemark>
      <Placemark>
        <name>Washington Pharmacy</name>
        <styleUrl>#icon-1899-0288D1-nodesc</styleUrl>
        <Point>
          <coordinates>
            -119.874312,47.2306959,0
          </coordinates>
        </Point>
      </Placemark>
      <Placemark>
        <name>Arow Pharmacy</name>
        <styleUrl>#icon-1899-0288D1-nodesc</styleUrl>
        <Point>
          <coordinates>
            -122.9402996,47.0475147,0
          </coordinates>
        </Point>
      </Placemark>
      <Placemark>
        <name>Othello Station Pharmacy</name>
        <styleUrl>#icon-1899-0288D1-nodesc</styleUrl>
        <Point>
          <coordinates>
            -122.2801914,47.5369263,0
          </coordinates>
        </Point>
      </Placemark>
      <Placemark>
        <name>Mega Pharmacy 형제약국</name>
        <styleUrl>#icon-1899-0288D1-nodesc</styleUrl>
        <Point>
          <coordinates>
            -122.4624687,47.1698965,0
          </coordinates>
        </Point>
      </Placemark>
      <Placemark>
        <name>Shelton Pharmacy</name>
        <styleUrl>#icon-1899-0288D1-nodesc</styleUrl>
        <Point>
          <coordinates>
            -123.123871,47.225444,0
          </coordinates>
        </Point>
      </Placemark>
      <Placemark>
        <name>Centralia Pharmacy</name>
        <styleUrl>#icon-1899-0288D1-nodesc</styleUrl>
        <Point>
          <coordinates>
            -122.9561727,46.7125839,0
          </coordinates>
        </Point>
      </Placemark>
      <Placemark>
        <name>Walgreens Pharmacy</name>
        <styleUrl>#icon-1899-0288D1-nodesc</styleUrl>
        <Point>
          <coordinates>
            -122.3382295,47.6097747,0
          </coordinates>
        </Point>
      </Placemark>
      <Placemark>
        <name>Walgreens Pharmacy</name>
        <styleUrl>#icon-1899-0288D1-nodesc</styleUrl>
        <Point>
          <coordinates>
            -122.2009036,47.9880476,0
          </coordinates>
        </Point>
      </Placemark>
      <Placemark>
        <name>Walgreens Pharmacy</name>
        <styleUrl>#icon-1899-0288D1-nodesc</styleUrl>
        <Point>
          <coordinates>
            -122.3212034,47.6151076,0
          </coordinates>
        </Point>
      </Placemark>
      <Placemark>
        <name>Rite Aid Pharmacy</name>
        <styleUrl>#icon-1899-0288D1-nodesc</styleUrl>
        <Point>
          <coordinates>
            -122.2902715,47.6906518,0
          </coordinates>
        </Point>
      </Placemark>
      <Placemark>
        <name>Walgreens Pharmacy</name>
        <styleUrl>#icon-1899-0288D1-nodesc</styleUrl>
        <Point>
          <coordinates>
            -122.108689,48.0026421,0
          </coordinates>
        </Point>
      </Placemark>
      <Placemark>
        <name><![CDATA[Eastern's Pharmacy]]></name>
        <styleUrl>#icon-1899-0288D1-nodesc</styleUrl>
        <Point>
          <coordinates>
            -122.3218822,47.6062712,0
          </coordinates>
        </Point>
      </Placemark>
      <Placemark>
        <name>Walgreens Pharmacy</name>
        <styleUrl>#icon-1899-0288D1-nodesc</styleUrl>
        <Point>
          <coordinates>
            -122.3648796,47.7910136,0
          </coordinates>
        </Point>
      </Placemark>
      <Placemark>
        <name><![CDATA[Mega Pharmacy (aka 형제 약국 "Brother Pharmacy)]]></name>
        <styleUrl>#icon-1899-0288D1-nodesc</styleUrl>
        <Point>
          <coordinates>
            -122.4626874,47.1698959,0
          </coordinates>
        </Point>
      </Placemark>
      <Placemark>
        <name>Family Pharmacy</name>
        <styleUrl>#icon-1899-0288D1-nodesc</styleUrl>
        <Point>
          <coordinates>
            -122.3320871,47.8074312,0
          </coordinates>
        </Point>
      </Placemark>
      <Placemark>
        <name>CVS Pharmacy</name>
        <styleUrl>#icon-1899-0288D1-nodesc</styleUrl>
        <Point>
          <coordinates>
            -122.3386291,47.608455,0
          </coordinates>
        </Point>
      </Placemark>
      <Placemark>
        <name>Walgreens Pharmacy</name>
        <styleUrl>#icon-1899-0288D1-nodesc</styleUrl>
        <Point>
          <coordinates>
            -122.3382295,47.6097747,0
          </coordinates>
        </Point>
      </Placemark>
      <Placemark>
        <name>Walgreens Pharmacy</name>
        <styleUrl>#icon-1899-0288D1-nodesc</styleUrl>
        <Point>
          <coordinates>
            -122.3212034,47.6151076,0
          </coordinates>
        </Point>
      </Placemark>
      <Placemark>
        <name>CVS Pharmacy</name>
        <styleUrl>#icon-1899-0288D1-nodesc</styleUrl>
        <Point>
          <coordinates>
            -122.3386291,47.608455,0
          </coordinates>
        </Point>
      </Placemark>
      <Placemark>
        <name>Rite Aid Pharmacy</name>
        <styleUrl>#icon-1899-0288D1-nodesc</styleUrl>
        <Point>
          <coordinates>
            -122.2902715,47.6906518,0
          </coordinates>
        </Point>
      </Placemark>
      <Placemark>
        <name>CVS Pharmacy</name>
        <styleUrl>#icon-1899-0288D1-nodesc</styleUrl>
        <Point>
          <coordinates>
            -122.2588386,47.4553102,0
          </coordinates>
        </Point>
      </Placemark>
      <Placemark>
        <name>Othello Station Pharmacy</name>
        <styleUrl>#icon-1899-0288D1-nodesc</styleUrl>
        <Point>
          <coordinates>
            -122.2801914,47.5369263,0
          </coordinates>
        </Point>
      </Placemark>
      <Placemark>
        <name>Walgreens Pharmacy</name>
        <styleUrl>#icon-1899-0288D1-nodesc</styleUrl>
        <Point>
          <coordinates>
            -122.2954735,47.3951078,0
          </coordinates>
        </Point>
      </Placemark>
      <Placemark>
        <name>Walgreens Pharmacy</name>
        <styleUrl>#icon-1899-0288D1-nodesc</styleUrl>
        <Point>
          <coordinates>
            -122.2861067,47.474474,0
          </coordinates>
        </Point>
      </Placemark>
      <Placemark>
        <name>Walgreens Pharmacy</name>
        <styleUrl>#icon-1899-0288D1-nodesc</styleUrl>
        <Point>
          <coordinates>
            -122.3648796,47.7910136,0
          </coordinates>
        </Point>
      </Placemark>
      <Placemark>
        <name>CVS Pharmacy</name>
        <styleUrl>#icon-1899-0288D1-nodesc</styleUrl>
        <Point>
          <coordinates>
            -122.480251,47.2376997,0
          </coordinates>
        </Point>
      </Placemark>
      <Placemark>
        <name>Walgreens</name>
        <styleUrl>#icon-1899-0288D1-nodesc</styleUrl>
        <Point>
          <coordinates>
            -122.0373977,47.5452384,0
          </coordinates>
        </Point>
      </Placemark>
      <Placemark>
        <name>Walgreens</name>
        <styleUrl>#icon-1899-0288D1-nodesc</styleUrl>
        <Point>
          <coordinates>
            -122.2344877,47.5861984,0
          </coordinates>
        </Point>
      </Placemark>
      <Placemark>
        <name>Walgreens</name>
        <styleUrl>#icon-1899-0288D1-nodesc</styleUrl>
        <Point>
          <coordinates>
            -122.3814149,47.2968072,0
          </coordinates>
        </Point>
      </Placemark>
      <Placemark>
        <name>Walgreens</name>
        <styleUrl>#icon-1899-0288D1-nodesc</styleUrl>
        <Point>
          <coordinates>
            -122.6303594,47.5200564,0
          </coordinates>
        </Point>
      </Placemark>
      <Placemark>
        <name>Walgreens</name>
        <styleUrl>#icon-1899-0288D1-nodesc</styleUrl>
        <Point>
          <coordinates>
            -122.2927934,47.2505139,0
          </coordinates>
        </Point>
      </Placemark>
      <Placemark>
        <name>Walgreens</name>
        <styleUrl>#icon-1899-0288D1-nodesc</styleUrl>
        <Point>
          <coordinates>
            -122.1752657,47.6789796,0
          </coordinates>
        </Point>
      </Placemark>
      <Placemark>
        <name>Walgreens</name>
        <styleUrl>#icon-1899-0288D1-nodesc</styleUrl>
        <Point>
          <coordinates>
            -122.1329136,47.6306992,0
          </coordinates>
        </Point>
      </Placemark>
      <Placemark>
        <name>Walgreens</name>
        <styleUrl>#icon-1899-0288D1-nodesc</styleUrl>
        <Point>
          <coordinates>
            -122.2180605,47.4802915,0
          </coordinates>
        </Point>
      </Placemark>
      <Placemark>
        <name>Walgreens</name>
        <styleUrl>#icon-1899-0288D1-nodesc</styleUrl>
        <Point>
          <coordinates>
            -122.3463622,47.4708421,0
          </coordinates>
        </Point>
      </Placemark>
      <Placemark>
        <name>Walgreens</name>
        <styleUrl>#icon-1899-0288D1-nodesc</styleUrl>
        <Point>
          <coordinates>
            -122.1119469,47.3588982,0
          </coordinates>
        </Point>
      </Placemark>
      <Placemark>
        <name>Walgreens</name>
        <styleUrl>#icon-1899-0288D1-nodesc</styleUrl>
        <Point>
          <coordinates>
            -120.283218,47.405513,0
          </coordinates>
        </Point>
      </Placemark>
      <Placemark>
        <name>Walgreens</name>
        <styleUrl>#icon-1899-0288D1-nodesc</styleUrl>
        <Point>
          <coordinates>
            -122.1329136,47.6306992,0
          </coordinates>
        </Point>
      </Placemark>
      <Placemark>
        <name>Walgreens</name>
        <styleUrl>#icon-1899-0288D1-nodesc</styleUrl>
        <Point>
          <coordinates>
            -122.3455144,47.6189866,0
          </coordinates>
        </Point>
      </Placemark>
      <Placemark>
        <name>Walgreens</name>
        <styleUrl>#icon-1899-0288D1-nodesc</styleUrl>
        <Point>
          <coordinates>
            -122.0373977,47.5452384,0
          </coordinates>
        </Point>
      </Placemark>
      <Placemark>
        <name>Walgreens</name>
        <styleUrl>#icon-1899-0288D1-nodesc</styleUrl>
        <Point>
          <coordinates>
            -122.1541893,47.6167118,0
          </coordinates>
        </Point>
      </Placemark>
      <Placemark>
        <name>Walgreens</name>
        <styleUrl>#icon-1899-0288D1-nodesc</styleUrl>
        <Point>
          <coordinates>
            -122.2180605,47.4802915,0
          </coordinates>
        </Point>
      </Placemark>
      <Placemark>
        <name>Walgreens</name>
        <styleUrl>#icon-1899-0288D1-nodesc</styleUrl>
        <Point>
          <coordinates>
            -122.3380992,47.6097763,0
          </coordinates>
        </Point>
      </Placemark>
      <Placemark>
        <name>Walgreens</name>
        <styleUrl>#icon-1899-0288D1-nodesc</styleUrl>
        <Point>
          <coordinates>
            -122.3463622,47.4708421,0
          </coordinates>
        </Point>
      </Placemark>
      <Placemark>
        <name>Walgreens</name>
        <styleUrl>#icon-1899-0288D1-nodesc</styleUrl>
        <Point>
          <coordinates>
            -122.3453084,47.7568155,0
          </coordinates>
        </Point>
      </Placemark>
      <Placemark>
        <name>Walgreens</name>
        <styleUrl>#icon-1899-0288D1-nodesc</styleUrl>
        <Point>
          <coordinates>
            -120.3256881,47.4363646,0
          </coordinates>
        </Point>
      </Placemark>
      <Placemark>
        <name>Walgreens</name>
        <styleUrl>#icon-1899-0288D1-nodesc</styleUrl>
        <Point>
          <coordinates>
            -118.3454491,46.0489233,0
          </coordinates>
        </Point>
      </Placemark>
      <Placemark>
        <name>Walgreens</name>
        <styleUrl>#icon-1899-0288D1-nodesc</styleUrl>
        <Point>
          <coordinates>
            -117.0435471,46.4195148,0
          </coordinates>
        </Point>
      </Placemark>
      <Placemark>
        <name>Walgreens</name>
        <styleUrl>#icon-1899-0288D1-nodesc</styleUrl>
        <Point>
          <coordinates>
            -117.0009438,46.7377901,0
          </coordinates>
        </Point>
      </Placemark>
      <Placemark>
        <name>Walgreens</name>
        <styleUrl>#icon-1899-0288D1-nodesc</styleUrl>
        <Point>
          <coordinates>
            -119.265322,46.2267015,0
          </coordinates>
        </Point>
      </Placemark>
      <Placemark>
        <name>Walgreens</name>
        <styleUrl>#icon-1899-0288D1-nodesc</styleUrl>
        <Point>
          <coordinates>
            -119.2752224,46.2947533,0
          </coordinates>
        </Point>
      </Placemark>
      <Placemark>
        <name>Walgreens</name>
        <styleUrl>#icon-1899-0288D1-nodesc</styleUrl>
        <Point>
          <coordinates>
            -119.2774054,47.1323213,0
          </coordinates>
        </Point>
      </Placemark>
      <Placemark>
        <name>Walgreens</name>
        <styleUrl>#icon-1899-0288D1-nodesc</styleUrl>
        <Point>
          <coordinates>
            -119.1599925,46.2126121,0
          </coordinates>
        </Point>
      </Placemark>
      <Placemark>
        <name>Walgreens</name>
        <styleUrl>#icon-1899-0288D1-nodesc</styleUrl>
        <Point>
          <coordinates>
            -119.1745573,46.1851137,0
          </coordinates>
        </Point>
      </Placemark>
      <Placemark>
        <name>Walgreens</name>
        <styleUrl>#icon-1899-0288D1-nodesc</styleUrl>
        <Point>
          <coordinates>
            -116.9997008,46.3992488,0
          </coordinates>
        </Point>
      </Placemark>
      <Placemark>
        <name>Walgreens</name>
        <styleUrl>#icon-1899-0288D1-nodesc</styleUrl>
        <Point>
          <coordinates>
            -119.1871776,46.2773224,0
          </coordinates>
        </Point>
      </Placemark>
      <Placemark>
        <name>Walgreens Pharmacy</name>
        <styleUrl>#icon-1899-0288D1-nodesc</styleUrl>
        <Point>
          <coordinates>
            -117.4053043,47.7698149,0
          </coordinates>
        </Point>
      </Placemark>
      <Placemark>
        <name>CVS Pharmacy</name>
        <styleUrl>#icon-1899-0288D1-nodesc</styleUrl>
        <Point>
          <coordinates>
            -117.3647984,47.6091269,0
          </coordinates>
        </Point>
      </Placemark>
      <Placemark>
        <name>CHAS Denny Murphy Pharmacy</name>
        <styleUrl>#icon-1899-0288D1-nodesc</styleUrl>
        <Point>
          <coordinates>
            -117.4269446,47.6542023,0
          </coordinates>
        </Point>
      </Placemark>
      <Placemark>
        <name>Medicine Man West Pharmacy</name>
        <styleUrl>#icon-1899-0288D1-nodesc</styleUrl>
        <Point>
          <coordinates>
            -116.9369426,47.7207813,0
          </coordinates>
        </Point>
      </Placemark>
      <Placemark>
        <name>Owl Pharmacy</name>
        <styleUrl>#icon-1899-0288D1-nodesc</styleUrl>
        <Point>
          <coordinates>
            -117.6816245,47.5730847,0
          </coordinates>
        </Point>
      </Placemark>
      <Placemark>
        <name>Whole Health Pharmacy</name>
        <styleUrl>#icon-1899-0288D1-nodesc</styleUrl>
        <Point>
          <coordinates>
            -120.5463365,46.9849146,0
          </coordinates>
        </Point>
      </Placemark>
      <Placemark>
        <name>White Cross Pharmacy - Spirit Lake</name>
        <styleUrl>#icon-1899-0288D1-nodesc</styleUrl>
        <Point>
          <coordinates>
            -116.8678932,47.9627217,0
          </coordinates>
        </Point>
      </Placemark>
      <Placemark>
        <name>Wenatchee Clinic Pharmacy</name>
        <styleUrl>#icon-1899-0288D1-nodesc</styleUrl>
        <Point>
          <coordinates>
            -120.323306,47.433828,0
          </coordinates>
        </Point>
      </Placemark>
      <Placemark>
        <name>Walgreens Pharmacy</name>
        <styleUrl>#icon-1899-0288D1-nodesc</styleUrl>
        <Point>
          <coordinates>
            -116.9383664,47.7136502,0
          </coordinates>
        </Point>
      </Placemark>
      <Placemark>
        <name>CVS Pharmacy</name>
        <styleUrl>#icon-1899-0288D1-nodesc</styleUrl>
        <Point>
          <coordinates>
            -117.3995295,47.7476142,0
          </coordinates>
        </Point>
      </Placemark>
      <Placemark>
        <name><![CDATA[Wray's Marketfresh IGA Meadowbrook]]></name>
        <styleUrl>#icon-1899-0288D1-nodesc</styleUrl>
        <Point>
          <coordinates>
            -120.6062175,46.5847969,0
          </coordinates>
        </Point>
      </Placemark>
      <Placemark>
        <name>Rite Aid Pharmacy</name>
        <styleUrl>#icon-1899-0288D1-nodesc</styleUrl>
        <Point>
          <coordinates>
            -120.5228358,46.5991711,0
          </coordinates>
        </Point>
      </Placemark>
      <Placemark>
        <name><![CDATA[Wray's Marketfresh IGA Chalet]]></name>
        <styleUrl>#icon-1899-0288D1-nodesc</styleUrl>
        <Point>
          <coordinates>
            -120.5841431,46.6012225,0
          </coordinates>
        </Point>
      </Placemark>
      <Placemark>
        <name>KVH Pharmacy</name>
        <styleUrl>#icon-1899-0288D1-nodesc</styleUrl>
        <Point>
          <coordinates>
            -120.5377965,46.9869743,0
          </coordinates>
        </Point>
      </Placemark>
      <Placemark>
        <name>Walgreens Pharmacy</name>
        <styleUrl>#icon-1899-0288D1-nodesc</styleUrl>
        <Point>
          <coordinates>
            -120.5177641,46.5993804,0
          </coordinates>
        </Point>
      </Placemark>
      <Placemark>
        <name>Rite Aid Pharmacy</name>
        <styleUrl>#icon-1899-0288D1-nodesc</styleUrl>
        <Point>
          <coordinates>
            -120.4800464,46.5644066,0
          </coordinates>
        </Point>
      </Placemark>
      <Placemark>
        <name>Walgreens Pharmacy</name>
        <styleUrl>#icon-1899-0288D1-nodesc</styleUrl>
        <Point>
          <coordinates>
            -120.5624707,46.6006233,0
          </coordinates>
        </Point>
      </Placemark>
      <Placemark>
        <name>Medicine Mart Stores</name>
        <styleUrl>#icon-1899-0288D1-nodesc</styleUrl>
        <Point>
          <coordinates>
            -120.561095,46.578301,0
          </coordinates>
        </Point>
      </Placemark>
      <Placemark>
        <name>Safeway Pharmacy</name>
        <styleUrl>#icon-1899-0288D1-nodesc</styleUrl>
        <Point>
          <coordinates>
            -120.5850355,46.5988951,0
          </coordinates>
        </Point>
      </Placemark>
      <Placemark>
        <name>Walgreens Pharmacy</name>
        <styleUrl>#icon-1899-0288D1-nodesc</styleUrl>
        <Point>
          <coordinates>
            -120.594542,46.5849805,0
          </coordinates>
        </Point>
      </Placemark>
      <Placemark>
        <name>Walgreens Pharmacy</name>
        <styleUrl>#icon-1899-0288D1-nodesc</styleUrl>
        <Point>
          <coordinates>
            -120.5177641,46.5993804,0
          </coordinates>
        </Point>
      </Placemark>
      <Placemark>
        <name>Walgreens Pharmacy</name>
        <styleUrl>#icon-1899-0288D1-nodesc</styleUrl>
        <Point>
          <coordinates>
            -120.5624707,46.6006233,0
          </coordinates>
        </Point>
      </Placemark>
      <Placemark>
        <name><![CDATA[Wray's Marketfresh IGA Chalet]]></name>
        <styleUrl>#icon-1899-0288D1-nodesc</styleUrl>
        <Point>
          <coordinates>
            -120.5841431,46.6012225,0
          </coordinates>
        </Point>
      </Placemark>
      <Placemark>
        <name>Rite Aid Pharmacy</name>
        <styleUrl>#icon-1899-0288D1-nodesc</styleUrl>
        <Point>
          <coordinates>
            -120.5228358,46.5991711,0
          </coordinates>
        </Point>
      </Placemark>
      <Placemark>
        <name>Walgreens Pharmacy</name>
        <styleUrl>#icon-1899-0288D1-nodesc</styleUrl>
        <Point>
          <coordinates>
            -120.594542,46.5849805,0
          </coordinates>
        </Point>
      </Placemark>
      <Placemark>
        <name>Safeway Pharmacy</name>
        <styleUrl>#icon-1899-0288D1-nodesc</styleUrl>
        <Point>
          <coordinates>
            -120.4888408,46.5782705,0
          </coordinates>
        </Point>
      </Placemark>
      <Placemark>
        <name>Rite Aid Pharmacy</name>
        <styleUrl>#icon-1899-0288D1-nodesc</styleUrl>
        <Point>
          <coordinates>
            -120.4800464,46.5644066,0
          </coordinates>
        </Point>
      </Placemark>
      <Placemark>
        <name>Safeway Pharmacy</name>
        <styleUrl>#icon-1899-0288D1-nodesc</styleUrl>
        <Point>
          <coordinates>
            -120.5324078,46.6025014,0
          </coordinates>
        </Point>
      </Placemark>
      <Placemark>
        <name>Safeway Pharmacy</name>
        <styleUrl>#icon-1899-0288D1-nodesc</styleUrl>
        <Point>
          <coordinates>
            -120.9536424,47.1956888,0
          </coordinates>
        </Point>
      </Placemark>
      <Placemark>
        <name>Medicine Mart Stores</name>
        <styleUrl>#icon-1899-0288D1-nodesc</styleUrl>
        <Point>
          <coordinates>
            -120.561095,46.578301,0
          </coordinates>
        </Point>
      </Placemark>
      <Placemark>
        <name>Walgreens Pharmacy</name>
        <styleUrl>#icon-1899-0288D1-nodesc</styleUrl>
        <Point>
          <coordinates>
            -119.1871682,46.2773206,0
          </coordinates>
        </Point>
      </Placemark>
      <Placemark>
        <name>Rite Aid Pharmacy</name>
        <styleUrl>#icon-1899-0288D1-nodesc</styleUrl>
        <Point>
          <coordinates>
            -119.1606391,46.2102748,0
          </coordinates>
        </Point>
      </Placemark>
      <Placemark>
        <name>Richland Clinic Pharmacy</name>
        <styleUrl>#icon-1899-0288D1-nodesc</styleUrl>
        <Point>
          <coordinates>
            -119.2738723,46.3007384,0
          </coordinates>
        </Point>
      </Placemark>
      <Placemark>
        <name>Walgreens Pharmacy</name>
        <styleUrl>#icon-1899-0288D1-nodesc</styleUrl>
        <Point>
          <coordinates>
            -119.1747306,46.1852906,0
          </coordinates>
        </Point>
      </Placemark>
      <Placemark>
        <name>Rite Aid Pharmacy</name>
        <styleUrl>#icon-1899-0288D1-nodesc</styleUrl>
        <Point>
          <coordinates>
            -119.1190378,46.2395129,0
          </coordinates>
        </Point>
      </Placemark>
      <Placemark>
        <name>Walgreens Pharmacy</name>
        <styleUrl>#icon-1899-0288D1-nodesc</styleUrl>
        <Point>
          <coordinates>
            -120.5177641,46.5993804,0
          </coordinates>
        </Point>
      </Placemark>
      <Placemark>
        <name>Rite Aid Pharmacy</name>
        <styleUrl>#icon-1899-0288D1-nodesc</styleUrl>
        <Point>
          <coordinates>
            -120.5228358,46.5991711,0
          </coordinates>
        </Point>
      </Placemark>
      <Placemark>
        <name>Safeway Pharmacy</name>
        <styleUrl>#icon-1899-0288D1-nodesc</styleUrl>
        <Point>
          <coordinates>
            -119.1928486,46.2138309,0
          </coordinates>
        </Point>
      </Placemark>
      <Placemark>
        <name>Safeway Pharmacy</name>
        <styleUrl>#icon-1899-0288D1-nodesc</styleUrl>
        <Point>
          <coordinates>
            -119.275739,46.2994758,0
          </coordinates>
        </Point>
      </Placemark>
      <Placemark>
        <name>Safeway Pharmacy</name>
        <styleUrl>#icon-1899-0288D1-nodesc</styleUrl>
        <Point>
          <coordinates>
            -119.2674561,46.2280211,0
          </coordinates>
        </Point>
      </Placemark>
      <Placemark>
        <name>Sunnyside Pharmacy</name>
        <styleUrl>#icon-1899-0288D1-nodesc</styleUrl>
        <Point>
          <coordinates>
            -119.9864624,46.3163805,0
          </coordinates>
        </Point>
      </Placemark>
      <Placemark>
        <name>Safeway Pharmacy</name>
        <styleUrl>#icon-1899-0288D1-nodesc</styleUrl>
        <Point>
          <coordinates>
            -120.0138717,46.3217683,0
          </coordinates>
        </Point>
      </Placemark>
      <Placemark>
        <name>Safeway Pharmacy</name>
        <styleUrl>#icon-1899-0288D1-nodesc</styleUrl>
        <Point>
          <coordinates>
            -119.8921443,46.2555127,0
          </coordinates>
        </Point>
      </Placemark>
      <Placemark>
        <name>Elfers-Lyon Pharmacy</name>
        <styleUrl>#icon-1899-0288D1-nodesc</styleUrl>
        <Point>
          <coordinates>
            -119.7632188,46.2073609,0
          </coordinates>
        </Point>
      </Placemark>
      <Placemark>
        <name>Richard L. Nelson, R</name>
        <styleUrl>#icon-1899-0288D1-nodesc</styleUrl>
        <Point>
          <coordinates>
            -119.992239,46.3258386,0
          </coordinates>
        </Point>
      </Placemark>
      <Placemark>
        <name>Prosser Pharmacy</name>
        <styleUrl>#icon-1899-0288D1-nodesc</styleUrl>
        <Point>
          <coordinates>
            -119.787444,46.2192129,0
          </coordinates>
        </Point>
      </Placemark>
      <Placemark>
        <name>Safeway Pharmacy</name>
        <styleUrl>#icon-1899-0288D1-nodesc</styleUrl>
        <Point>
          <coordinates>
            -120.3215292,46.3763011,0
          </coordinates>
        </Point>
      </Placemark>
      <Placemark>
        <name><![CDATA[Ash Street Pharmacy DBA Doctor's Pharmacy]]></name>
        <styleUrl>#icon-1899-0288D1-nodesc</styleUrl>
        <Point>
          <coordinates>
            -119.9007045,46.255544,0
          </coordinates>
        </Point>
      </Placemark>
      <Placemark>
        <name>Yakima Neighborhood Health Services</name>
        <styleUrl>#icon-1899-0288D1-nodesc</styleUrl>
        <Point>
          <coordinates>
            -120.0205717,46.333219,0
          </coordinates>
        </Point>
      </Placemark>
      <Placemark>
        <name>Walmart Pharmacy</name>
        <styleUrl>#icon-1899-0288D1-nodesc</styleUrl>
        <Point>
          <coordinates>
            -119.9861962,46.3150208,0
          </coordinates>
        </Point>
      </Placemark>
      <Placemark>
        <name>Safeway Pharmacy</name>
        <styleUrl>#icon-1899-0288D1-nodesc</styleUrl>
        <Point>
          <coordinates>
            -119.8921443,46.2555127,0
          </coordinates>
        </Point>
      </Placemark>
      <Placemark>
        <name>Elfers-Lyon Pharmacy</name>
        <styleUrl>#icon-1899-0288D1-nodesc</styleUrl>
        <Point>
          <coordinates>
            -119.7632188,46.2073609,0
          </coordinates>
        </Point>
      </Placemark>
      <Placemark>
        <name>Prosser Pharmacy</name>
        <styleUrl>#icon-1899-0288D1-nodesc</styleUrl>
        <Point>
          <coordinates>
            -119.787444,46.2192129,0
          </coordinates>
        </Point>
      </Placemark>
      <Placemark>
        <name><![CDATA[Ash Street Pharmacy DBA Doctor's Pharmacy]]></name>
        <styleUrl>#icon-1899-0288D1-nodesc</styleUrl>
        <Point>
          <coordinates>
            -119.900646,46.2555439,0
          </coordinates>
        </Point>
      </Placemark>
      <Placemark>
        <name>Sunnyside Pharmacy</name>
        <styleUrl>#icon-1899-0288D1-nodesc</styleUrl>
        <Point>
          <coordinates>
            -119.9864624,46.3163805,0
          </coordinates>
        </Point>
      </Placemark>
      <Placemark>
        <name>Safeway Pharmacy</name>
        <styleUrl>#icon-1899-0288D1-nodesc</styleUrl>
        <Point>
          <coordinates>
            -120.0138717,46.3217683,0
          </coordinates>
        </Point>
      </Placemark>
      <Placemark>
        <name>Prosser Animal Hospital</name>
        <styleUrl>#icon-1899-0288D1-nodesc</styleUrl>
        <Point>
          <coordinates>
            -119.7864469,46.2156327,0
          </coordinates>
        </Point>
      </Placemark>
      <Placemark>
        <name>Gibbons Pharmacy-Toppenish</name>
        <styleUrl>#icon-1899-0288D1-nodesc</styleUrl>
        <Point>
          <coordinates>
            -120.3115379,46.375458,0
          </coordinates>
        </Point>
      </Placemark>
      <Placemark>
        <name>Richard L. Nelson, R</name>
        <styleUrl>#icon-1899-0288D1-nodesc</styleUrl>
        <Point>
          <coordinates>
            -119.9922391,46.3258386,0
          </coordinates>
        </Point>
      </Placemark>
      <Placemark>
        <name>Safeway Pharmacy</name>
        <styleUrl>#icon-1899-0288D1-nodesc</styleUrl>
        <Point>
          <coordinates>
            -119.2682934,47.1304217,0
          </coordinates>
        </Point>
      </Placemark>
      <Placemark>
        <name>Coulee Medical Center</name>
        <styleUrl>#icon-1899-0288D1-nodesc</styleUrl>
        <Point>
          <coordinates>
            -119.00822,47.94223,0
          </coordinates>
        </Point>
      </Placemark>
      <Placemark>
        <name>Safeway Pharmacy</name>
        <styleUrl>#icon-1899-0288D1-nodesc</styleUrl>
        <Point>
          <coordinates>
            -122.9812406,46.7276532,0
          </coordinates>
        </Point>
      </Placemark>
      <Placemark>
        <name>Rite Aid Pharmacy</name>
        <styleUrl>#icon-1899-0288D1-nodesc</styleUrl>
        <Point>
          <coordinates>
            -120.5228358,46.5991711,0
          </coordinates>
        </Point>
      </Placemark>
      <Placemark>
        <name>Forbidden Cannabis Club Okanogan-Omak Marijuana Dispensary</name>
        <styleUrl>#icon-1899-0288D1-nodesc</styleUrl>
        <Point>
          <coordinates>
            -119.5606194,48.3811335,0
          </coordinates>
        </Point>
      </Placemark>
      <Placemark>
        <name>Rite Aid Pharmacy</name>
        <styleUrl>#icon-1899-0288D1-nodesc</styleUrl>
        <Point>
          <coordinates>
            -122.4332413,47.1923285,0
          </coordinates>
        </Point>
      </Placemark>
      <Placemark>
        <name>Sav-On Pharmacy</name>
        <styleUrl>#icon-1899-0288D1-nodesc</styleUrl>
        <Point>
          <coordinates>
            -122.8459031,47.042798,0
          </coordinates>
        </Point>
      </Placemark>
      <Placemark>
        <name>Rite Aid Pharmacy</name>
        <styleUrl>#icon-1899-0288D1-nodesc</styleUrl>
        <Point>
          <coordinates>
            -122.9825652,46.7301151,0
          </coordinates>
        </Point>
      </Placemark>
      <Placemark>
        <name>Spanaway Pharmacy</name>
        <styleUrl>#icon-1899-0288D1-nodesc</styleUrl>
        <Point>
          <coordinates>
            -122.434253,47.0964567,0
          </coordinates>
        </Point>
      </Placemark>
      <Placemark>
        <name>Sunnyside Pharmacy</name>
        <styleUrl>#icon-1899-0288D1-nodesc</styleUrl>
        <Point>
          <coordinates>
            -119.9864624,46.3163805,0
          </coordinates>
        </Point>
      </Placemark>
    </Folder>
    <Folder>
      <name>Untitled layer</name>
    </Folder>
  </Document>
</kml>
